SatCatId,ObjectName,LaunchYear,OrbitalPeriod,LaunchMass,StatusCode,Inclination,Status,UcsData,OrbitClassEstimated,LaunchSiteCountry,Owner,UseType,Purpose,LaunchVehicleClass,TLE1,TLE2,MeanMotion,Eccentricity,OrbitClass
52455,STARLINK-3890,2022,95.44,260.0,+,53.22,Active,1,LEO,USA,USA,Commercial,Communications,Falcon,1 52455U 22049E   23226.47746789  .00000516  00000+0  50507-4 0  9997,2 52455  53.2173 320.9208 0000906  88.7487 271.3609 15.08839140 70638,15.0883914,9.06e-05,LEO
52456,STARLINK-3896,2022,95.44,260.0,+,53.22,Active,1,LEO,USA,USA,Commercial,Communications,Falcon,1 52456U 22049F   23227.40115013  .00006719  00000+0  43975-3 0  9993,2 52456  53.2174 316.7762 0000864  52.3738 307.7333 15.08849081 70775,15.08849081,8.64e-05,LEO
52457,STARLINK-3899,2022,95.44,260.0,+,53.22,Active,1,LEO,USA,USA,Commercial,Communications,Falcon,1 52457U 22049G   23227.39652453  .00013625  00000+0  87234-3 0  9996,2 52457  53.2167 316.7864 0000803  99.6008 260.5075 15.08846883 70774,15.08846883,8.03e-05,LEO
52458,STARLINK-3898,2022,95.44,260.0,+,53.22,Active,1,LEO,USA,USA,Commercial,Communications,Falcon,1 52458U 22049H   23226.46643123  .00000286  00000+0  36074-4 0  9994,2 52458  53.2175 320.9725 0000906  67.7962 292.3126 15.08837939 70633,15.08837939,9.06e-05,LEO
52459,STARLINK-3856,2022,95.44,260.0,+,53.22,Active,1,LEO,USA,USA,Commercial,Communications,Falcon,1 52459U 22049J   23227.44527000  .00002232  00000+0  15827-3 0  9994,2 52459  53.2168 306.5730 0000978  91.2751 268.8353 15.08843735 70911,15.08843735,9.78e-05,LEO
52460,STARLINK-3865,2022,95.44,260.0,+,53.22,Active,1,LEO,USA,USA,Commercial,Communications,Falcon,1 52460U 22049K   23227.43790740  .00007593  00000+0  49450-3 0  9992,2 52460  53.2163 306.5610 0001032  55.9597 304.1493 15.08850137 70915,15.08850137,0.0001032,LEO
52461,STARLINK-3900,2022,95.44,260.0,+,53.22,Active,1,LEO,USA,USA,Commercial,Communications,Falcon,1 52461U 22049L   23226.44891144  .00002081  00000+0  14880-3 0  9999,2 52461  53.2175 301.0493 0000890  93.9911 266.1183 15.08843017 70902,15.08843017,8.9e-05,LEO
52462,STARLINK-3903,2022,95.44,260.0,+,53.22,Active,1,LEO,USA,USA,Commercial,Communications,Falcon,1 52462U 22049M   23227.04142908  .00002804  00000+0  19416-3 0  9997,2 52462  53.2161 308.4013 0001012  76.3236 283.7868 15.08843362 70851,15.08843362,0.0001012,LEO
52463,STARLINK-3885,2022,95.44,260.0,+,53.22,Active,1,LEO,USA,USA,Commercial,Communications,Falcon,1 52463U 22049N   23226.90891028  .00000115  00000+0  25302-4 0  9991,2 52463  53.2162 298.9798 0000660  68.3534 291.7528 15.08839616 70978,15.08839616,6.6e-05,LEO
52464,STARLINK-3904,2022,95.44,260.0,+,53.22,Active,1,LEO,USA,USA,Commercial,Communications,Falcon,1 52464U 22049P   23226.64670970  .00000662  00000+0  59638-4 0  9990,2 52464  53.2177 310.1616 0000964  85.6338 274.4764 15.08844454 70798,15.08844454,9.64e-05,LEO
52465,STARLINK-3863,2022,95.44,260.0,+,53.22,Active,1,LEO,USA,USA,Commercial,Communications,Falcon,1 52465U 22049Q   23227.43515262  .00001233  00000+0  95523-4 0  9999,2 52465  53.2179 296.6194 0001236  90.3920 269.7214 15.08841558 71052,15.08841558,0.0001236,LEO
52466,STARLINK-3840,2022,95.44,260.0,+,53.22,Active,1,LEO,USA,USA,Commercial,Communications,Falcon,1 52466U 22049R   23227.44624941  .00002384  00000+0  16788-3 0  9999,2 52466  53.2175 306.7392 0001247  95.1622 264.9513 15.08830309 70911,15.08830309,0.0001247,LEO
52467,STARLINK-3873,2022,95.44,260.0,+,53.22,Active,1,LEO,USA,USA,Commercial,Communications,Falcon,1 52467U 22049S   23226.97054927  .00001369  00000+0  10406-3 0  9991,2 52467  53.2171 308.7109 0000946  75.5533 284.5565 15.08845130 70849,15.0884513,9.46e-05,LEO
52468,STARLINK-3864,2022,95.44,260.0,+,53.22,Active,1,LEO,USA,USA,Commercial,Communications,Falcon,1 52468U 22049T   23226.95583235  .00000702  00000+0  62188-4 0  9994,2 52468  53.2176 308.7725 0000963  86.3852 273.7250 15.08843905 70841,15.08843905,9.63e-05,LEO
52469,STARLINK-3828,2022,95.44,260.0,+,53.22,Active,1,LEO,USA,USA,Commercial,Communications,Falcon,1 52469U 22049U   23226.96319303  .00003848  00000+0  25970-3 0  9990,2 52469  53.2168 308.7427 0000976  84.7765 275.3339 15.08841600 70847,15.088416,9.76e-05,LEO
52470,STARLINK-3859,2022,95.44,260.0,+,53.22,Active,1,LEO,USA,USA,Commercial,Communications,Falcon,1 52470U 22049V   23226.41855551  .00000619  00000+0  56987-4 0  9998,2 52470  53.2201 311.1851 0001751  87.2927 272.8266 15.08836113 70761,15.08836113,0.0001751,LEO
52471,STARLINK-3862,2022,95.44,260.0,+,53.22,Active,1,LEO,USA,USA,Commercial,Communications,Falcon,1 52471U 22049W   23226.96046757  .00000059  00000+0  21818-4 0  9992,2 52471  53.2190 308.7656 0001289  84.3879 275.7260 15.08849324 70847,15.08849324,0.0001289,LEO
52472,STARLINK-3881,2022,95.44,260.0,+,53.22,Active,1,LEO,USA,USA,Commercial,Communications,Falcon,1 52472U 22049X   23227.40847420  .00002804  00000+0  19415-3 0  9998,2 52472  53.2166 306.7399 0001193  78.8116 281.3010 15.08843066 70910,15.08843066,0.0001193,LEO
52473,STARLINK-3879,2022,95.44,260.0,+,53.22,Active,1,LEO,USA,USA,Commercial,Communications,Falcon,1 52473U 22049Y   23227.41583291  .00003171  00000+0  21722-3 0  9995,2 52473  53.2160 306.7068 0001049  82.4047 277.7065 15.08843402 70915,15.08843402,0.0001049,LEO
52474,STARLINK-3855,2022,95.44,260.0,+,53.22,Active,1,LEO,USA,USA,Commercial,Communications,Falcon,1 52474U 22049Z   23226.43514848  .00001057  00000+0  84491-4 0  9993,2 52474  53.2169 301.1211 0000942  98.9224 261.1875 15.08837541 70906,15.08837541,9.42e-05,LEO
52475,STARLINK-3882,2022,95.44,260.0,+,53.22,Active,1,LEO,USA,USA,Commercial,Communications,Falcon,1 52475U 22049AA  23226.43697882  .00000642  00000+0  58410-4 0  9995,2 52475  53.2180 311.3229 0000653  87.1039 273.0028 15.08837603 70760,15.08837603,6.53e-05,LEO
52476,STARLINK-3835,2022,95.44,260.0,+,53.22,Active,1,LEO,USA,USA,Commercial,Communications,Falcon,1 52476U 22049AB  23226.89515176  .00001695  00000+0  12453-3 0  9996,2 52476  53.2172 299.0572 0001109  83.9101 276.2018 15.08841846 70977,15.08841846,0.0001109,LEO
52477,STARLINK-3860,2022,95.44,260.0,+,53.22,Active,1,LEO,USA,USA,Commercial,Communications,Falcon,1 52477U 22049AC  23226.90155293  .00001319  00000+0  10095-3 0  9992,2 52477  53.2182 299.0147 0001446  89.1402 270.9755 15.08838883 70979,15.08838883,0.0001446,LEO
52478,STARLINK-3825,2022,95.44,260.0,+,53.22,Active,1,LEO,USA,USA,Commercial,Communications,Falcon,1 52478U 22049AD  23226.40751303  .00000805  00000+0  68654-4 0  9996,2 52478  53.2165 311.2365 0001101  83.9466 276.1652 15.08840251 70763,15.08840251,0.0001101,LEO
52479,STARLINK-3878,2022,95.44,260.0,+,53.22,Active,1,LEO,USA,USA,Commercial,Communications,Falcon,1 52479U 22049AE  23227.41680578 -.00020551  00000+0 -12806-2 0  9992,2 52479  53.2185 296.7024 0002853 139.8168 220.3036 15.08728814 71050,15.08728814,0.0002853,LEO
52480,STARLINK-3839,2022,95.44,260.0,+,53.22,Active,1,LEO,USA,USA,Commercial,Communications,Falcon,1 52480U 22049AF  23226.93375095 -.00000293  00000+0 -33884-6 0  9999,2 52480  53.2181 308.8700 0000898  93.7679 266.3416 15.08836733 70844,15.08836733,8.98e-05,LEO
52481,STARLINK-3842,2022,95.44,260.0,+,53.22,Active,1,LEO,USA,USA,Commercial,Communications,Falcon,1 52481U 22049AG  23227.40479247  .00006575  00000+0  43069-3 0  9997,2 52481  53.2169 306.7571 0000955  68.8781 291.2313 15.08847250 70912,15.0884725,9.55e-05,LEO
52482,STARLINK-3813,2022,95.44,260.0,+,53.22,Active,1,LEO,USA,USA,Commercial,Communications,Falcon,1 52482U 22049AH  23226.41579373  .00001944  00000+0  14020-3 0  9999,2 52482  53.2166 301.1978 0001044  66.3950 293.7152 15.08840026 70902,15.08840026,0.0001044,LEO
52483,STARLINK-3875,2022,95.44,260.0,+,53.22,Active,1,LEO,USA,USA,Commercial,Communications,Falcon,1 52483U 22049AJ  23227.42043165  .00005286  00000+0  34997-3 0  9995,2 52483  53.2168 296.6852 0001168 100.7708 259.3416 15.08841417 71058,15.08841417,0.0001168,LEO
52484,STARLINK-3887,2022,95.44,260.0,+,53.22,Active,1,LEO,USA,USA,Commercial,Communications,Falcon,1 52484U 22049AK  23227.39375204  .00001740  00000+0  12738-3 0  9994,2 52484  53.2169 306.8041 0000977  98.2217 261.8886 15.08839139 70918,15.08839139,9.77e-05,LEO
52485,STARLINK-3913,2022,95.44,260.0,+,53.22,Active,1,LEO,USA,USA,Commercial,Communications,Falcon,1 52485U 22049AL  23226.41947218  .00000630  00000+0  57684-4 0  9994,2 52485  53.2160 301.1817 0000957  86.7827 273.3275 15.08838402 70907,15.08838402,9.57e-05,LEO
52486,STARLINK-3918,2022,95.44,260.0,+,53.22,Active,1,LEO,USA,USA,Commercial,Communications,Falcon,1 52486U 22049AM  23226.45903101  .00002610  00000+0  18202-3 0  9994,2 52486  53.2170 311.0018 0001040  88.3282 271.7830 15.08842840 70774,15.0884284,0.000104,LEO
52487,STARLINK-3902,2022,95.44,260.0,+,53.22,Active,1,LEO,USA,USA,Commercial,Communications,Falcon,1 52487U 22049AN  23227.42411462 -.00005489  00000+0 -32691-3 0  9994,2 52487  53.2161 296.7760 0001023  75.4480 284.6625 15.08857471 71059,15.08857471,0.0001023,LEO
52488,STARLINK-3892,2022,95.44,260.0,+,53.22,Active,1,LEO,USA,USA,Commercial,Communications,Falcon,1 52488U 22049AP  23227.44895250  .00001419  00000+0  10723-3 0  9997,2 52488  53.2180 306.5559 0001161 109.4382 250.6736 15.08841727 70927,15.08841727,0.0001161,LEO
52489,STARLINK-3923,2022,95.44,260.0,+,53.22,Active,1,LEO,USA,USA,Commercial,Communications,Falcon,1 52489U 22049AQ  23226.66142913  .00003932  00000+0  26498-3 0  9990,2 52489  53.2173 310.0969 0000893 130.5585 229.5485 15.08843847 70804,15.08843847,8.93e-05,LEO
52490,STARLINK-3914,2022,95.44,260.0,+,53.22,Active,1,LEO,USA,USA,Commercial,Communications,Falcon,1 52490U 22049AR  23227.39835200  .00006378  00000+0  41835-3 0  9990,2 52490  53.2162 296.7863 0001083  83.0352 277.0763 15.08848365 71058,15.08848365,0.0001083,LEO
